{"fetched_at":"2026-07-14T17:41:04.817Z","source":"https://celestrak.org/NORAD/elements/gp.php?NAME=SENTINEL&FORMAT=JSON","constellation":"sentinel-6","records":[{"OBJECT_NAME":"SENTINEL-6A","OBJECT_ID":"2020-086A","EPOCH":"2026-07-14T00:31:13.224576","CLASSIFICATION_TYPE":"U","MEAN_MOTION":12.80930118,"ECCENTRICITY":0.00078,"INCLINATION":66.0413,"RA_OF_ASC_NODE":79.3181,"ARG_OF_PERICENTER":269.9179,"MEAN_ANOMALY":90.0943,"EPHEMERIS_TYPE":0,"NORAD_CAT_ID":46984,"ELEMENT_SET_NO":999,"REV_AT_EPOCH":26376,"BSTAR":0.000068355,"MEAN_MOTION_DOT":-4.5e-7,"MEAN_MOTION_DDOT":0},{"OBJECT_NAME":"SENTINEL-6B","OBJECT_ID":"2025-264A","EPOCH":"2026-07-14T09:53:52.084032","CLASSIFICATION_TYPE":"U","MEAN_MOTION":12.80930155,"ECCENTRICITY":0.0007852,"INCLINATION":66.0413,"RA_OF_ASC_NODE":78.6326,"ARG_OF_PERICENTER":268.7128,"MEAN_ANOMALY":91.2988,"EPHEMERIS_TYPE":0,"NORAD_CAT_ID":66514,"ELEMENT_SET_NO":999,"REV_AT_EPOCH":3065,"BSTAR":0.00007924,"MEAN_MOTION_DOT":-4.3e-7,"MEAN_MOTION_DDOT":0}]}
